[{"OBJECT_NAME":"STARLINK-6157","OBJECT_ID":"2023-061F","EPOCH":"2026-03-09T22:00:01.999584","MEAN_MOTION":15.1513954,"ECCENTRICITY":0.00021581,"INCLINATION":43,"RA_OF_ASC_NODE":195.7762,"ARG_OF_PERICENTER":270.2973,"MEAN_ANOMALY":110.2271,"EPHEMERIS_TYPE":0,"CLASSIFICATION_TYPE":"U","NORAD_CAT_ID":56379,"ELEMENT_SET_NO":999,"REV_AT_EPOCH":572,"BSTAR":0.064935447,"MEAN_MOTION_DOT":0.01347423,"MEAN_MOTION_DDOT":0},{"OBJECT_NAME":"MBZ-SAT","OBJECT_ID":"2025-009T","EPOCH":"2026-03-09T17:04:51.088224","MEAN_MOTION":15.18507845,"ECCENTRICITY":0.00021634,"INCLINATION":97.403,"RA_OF_ASC_NODE":149.1701,"ARG_OF_PERICENTER":323.4829,"MEAN_ANOMALY":36.6257,"EPHEMERIS_TYPE":0,"CLASSIFICATION_TYPE":"U","NORAD_CAT_ID":62626,"ELEMENT_SET_NO":999,"REV_AT_EPOCH":6359,"BSTAR":3.31466e-7,"MEAN_MOTION_DOT":-5.9e-7,"MEAN_MOTION_DDOT":0}]
